ASTROCAST-0203          
1 48955U 21059CE  23351.36407366  .00009485  00000+0  38533-3 0  9997
2 48955  97.6098 128.1790 0012771   5.9317 354.2069 15.24717712137156
ASTROCAST-0205          
1 48960U 21059CK  23351.32040137  .00010903  00000+0  44221-3 0  9996
2 48960  97.6108 128.4419 0011451 348.1218  11.9747 15.24749719137153
GHALIB                  
1 48962U 21059CM  23351.34734018  .00071365  00000+0  13231-2 0  9993
2 48962  97.6078 134.5961 0003968 329.4281  30.6737 15.48720688137558
NAPA-2                  
1 48963U 21059CN  23351.52334177  .00011661  00000+0  52326-3 0  9998
2 48963  97.6184 125.3773 0011335   3.5506 356.5807 15.21299077136969
W-CUBE                  
1 48965U 21059CQ  23351.36443337  .00011151  00000+0  45938-3 0  9996
2 48965  97.6220 127.0546 0009948 356.4646   3.6519 15.24231560137025
NEPT-1                  
1 48966U 21059CR  23351.57279525  .00043634  00000+0  11161-2 0  9997
2 48966  97.6038 131.8480 0004466 331.9567  28.1436 15.39294455137458
JILIN-1 GAOFEN 3D01     
1 49004U 21061B   23351.56108435  .00013635  00000+0  59228-3 0  9999
2 49004  97.4243  53.0479 0011278  69.9263 290.3186 15.22362988135778
JILIN-1 GAOFEN 3D03     
1 49006U 21061D   23351.56110400  .00012224  00000+0  58314-3 0  9994
2 49006  97.4231  51.1870 0011758 113.9228 246.3240 15.19161070135659
XINGSHIDAI 10           
1 49007U 21061E   23351.55741002  .00011369  00000+0  54444-3 0  9991
2 49007  97.4236  51.1060 0012683 100.6694 259.5970 15.19036337135646
FENGYUN 3E              
1 49008U 21062A   23351.60506411  .00000021  00000+0  30601-4 0  9995
2 49008  98.7281 350.3853 0001588 157.7258 202.3987 14.19716626127084
DHABISAT (MYSAT-2)      
1 49016U 21013F   23350.99819435  .00250125  00000+0  11845-2 0  9993
2 49016  51.5740 238.9871 0005965 165.9493 194.1676 15.81708958138293
IT-SPINS                
1 49017U 21013G   23350.95226452  .00104697  00000+0  97304-3 0  9998
2 49017  51.5824 250.1575 0002781 172.2008 187.9031 15.66590601138089
ISS (NAUKA)             
1 49044U 21066A   23351.56049911  .00017985  00000+0  31690-3 0  9996
2 49044  51.6392 140.2396 0001820  35.4273 324.6837 15.50487767430223
BRO-4                   
1 49066U 21073A   23351.57410739  .00018617  00000+0  78709-3 0  9994
2 49066  97.4692  62.5556 0021760 182.7668 177.3452 15.23053714128884
RADCUBE                 
1 49067U 21073B   23351.17194915  .00027062  00000+0  90504-3 0  9997
2 49067  97.4641  63.8179 0016989 186.0014 174.1026 15.30821472128922
SUNSTORM                
1 49068U 21073C   23351.17931933  .00026163  00000+0  90771-3 0  9994
2 49068  97.4671  63.3485 0017292 188.3020 171.7937 15.29631299128884
LEDSAT                  
1 49069U 21073D   23351.14242653  .00010359  00000+0  50311-3 0  9992
2 49069  97.4626  59.2160 0021296 202.5446 157.4854 15.18444168128625
STARLINK-3100           
1 49144U 21082Q   23351.56500637  .00000641  00000+0  61532-4 0  9992
2 49144  69.9981 184.6181 0002601 271.8614  88.2247 14.98330929124188
CUTE                    
1 49263U 21088D   23351.17288724  .00009062  00000+0  51368-3 0  9998
2 49263  97.5231  54.1203 0016087 359.7600   0.3621 15.13108559121914
2021-091B               
1 49316U 21091B   23351.58846591  .00005242  00000+0  25847-3 0  9997
2 49316  97.4544 176.6117 0004096  53.8260 306.3353 15.18348495120509
2021-091H               
1 49322U 21091H   23351.55920756  .00015667  00000+0  52732-3 0  9992
2 49322  97.4477 181.0242 0013075  11.6854 348.4688 15.30785795120801
2021-091K               
1 49324U 21091K   23351.59637157  .00075431  00000+0  15380-2 0  9990
2 49324  97.4168 184.2007 0009740 354.4859   5.6281 15.45903914121130
SDGSAT 1                
1 49387U 21100A   23351.56320248  .00004374  00000+0  21370-3 0  9992
2 49387  97.3931  49.0801 0000370 108.3733 251.7541 15.18761989117326
ASTERISC                
1 49395U 21102A   23351.10479933  .00013686  00000+0  74224-3 0  9991
2 49395  97.4633  40.1360 0013594 139.4917 220.7329 15.14605664115509
TEIKYOSAT-4 (OORURI)    
1 49396U 21102B   23351.58603524  .00001688  00000+0  12898-3 0  9997
2 49396  97.4892  37.7504 0013952 168.5166 191.6381 15.03192485115319
Z-SAT                   
1 49399U 21102E   23351.58698931  .00003607  00000+0  24751-3 0  9990
2 49399  97.4601  38.9810 0021830 159.1782 201.0340 15.06420136115486
HIBARI                  
1 49400U 21102F   23351.61538351  .00006964  00000+0  44360-3 0  9993
2 49400  97.4588  39.9405 0019535 149.9846 210.2508 15.08898806115563
KOSEN-1                 
1 49402U 21102H   23351.08626082  .00004971  00000+0  31929-3 0  9998
2 49402  97.4529  39.3846 0020660 148.1774 212.0707 15.08711790115517
GLOBAL-14               
1 49469U 21106A   23351.54471320  .00023042  00000+0  57263-3 0  9998
2 49469  42.0102 219.1196 0003302 193.5058 166.5695 15.39815774117514
GLOBAL-15               
1 49470U 21106B   23351.22170162  .00028839  00000+0  61649-3 0  9997
2 49470  42.0019 260.5286 0022839 197.1642 162.8429 15.43958794117012
GAOFEN-3 02             
1 49495U 21109A   23351.58860173  .00000077  00000+0  36539-4 0  9999
2 49495  98.4137 356.4312 0001443 128.4626 231.6693 14.42213784108779
GLOBAL-12               
1 49772U 21115BA  23350.62751081  .00016089  00000+0  42823-3 0  9997
2 49772  53.2077  32.5322 0002645  33.0580 327.0590 15.38381581115060
GLOBAL-13               
1 49773U 21115BB  23351.37817161  .00019199  00000+0  50681-3 0  9999
2 49773  53.2102  30.1912 0001198  59.9009 300.2115 15.38504625115167
2021-117A               
1 49812U 21117A   23351.55299905  .00074030  00000+0  11256-2 0  9994
2 49812  97.3347  75.1707 0006838 156.0766 204.0807 15.54274820113657
JINZIJING 1 03          
1 49813U 21117B   23351.56036380  .00168399  00000+0  13656-2 0  9990
2 49813  97.3232  74.6596 0004453 168.0016 192.1353 15.70226553113643
GLOBAL-17               
1 49949U 21120A   23351.30467160  .00021567  00000+0  56109-3 0  9996
2 49949  42.0073 347.5822 0008291 101.8949 258.2820 15.38419690114151
GLOBAL-16               
1 49950U 21120B   23350.42780816  .00020912  00000+0  54436-3 0  9990
2 49950  42.0075 352.2384 0006917 105.9002 254.2600 15.38427301114014
XW-3 (CAS-9)            
1 50466U 21131B   23351.58836137  .00000704  00000+0  24132-3 0  9999
2 50466  98.5418  72.4964 0003381 322.9089  37.1864 14.39244612103737
UMBRA-02                
1 50986U 22002C   23351.17664500  .00024549  00000+0  12121-2 0  9999
2 50986  97.4188  54.1701 0005906 149.9705 210.1868 15.17856009106454
TEVEL-3                 
1 50988U 22002E   23351.45472382  .00034639  00000+0  98021-3 0  9992
2 50988  97.4099  58.2070 0005083 310.3813  49.6986 15.36212714106783
TEVEL-8                 
1 50989U 22002F   23351.48247780  .00041925  00000+0  11879-2 0  9999
2 50989  97.4116  58.3135 0005029 308.3376  51.7415 15.36131108106786
ION SCV-004             
1 50993U 22002K   23351.15874176  .00003057  00000+0  16142-3 0  9996
2 50993  97.4160  51.1879 0007527 328.2119  31.8659 15.16240359106266
TEVEL-5                 
1 50998U 22002Q   23351.46804133  .00038094  00000+0  10281-2 0  9997
2 50998  97.4093  58.8873 0005855 300.3990  59.6676 15.37663465106834
TEVEL-6                 
1 50999U 22002R   23351.46734563  .00037948  00000+0  10248-2 0  9997
2 50999  97.4092  58.8755 0005837 300.0361  60.0304 15.37645139106834
TEVEL-1                 
1 51013U 22002AF  23351.53664585  .00041376  00000+0  11718-2 0  9992
2 51013  97.4091  58.1965 0004903 308.8599  51.2207 15.36149005106798
SANOSAT-1               
1 51031U 22002AZ  23351.20545994  .00183954  00000+0  20069-2 0  9996
2 51031  97.4166  64.9762 0005284 278.3130  81.7529 15.62756857107138
IRIS-A                  
1 51044U 22002BN  23351.16290262  .00010164  00000+0  41971-3 0  9998
2 51044  97.4120  54.1487 0006351 329.1747  30.9117 15.24194519106487
FLOCK 4X-28             
1 51045U 22002BP  23351.19966926  .00029773  00000+0  72950-3 0  9996
2 51045  97.4107  60.9299 0005532 272.7604  87.3009 15.40683321106921
FLOCK 4X-19             
1 51046U 22002BQ  23351.15177434  .00036869  00000+0  66087-3 0  9999
2 51046  97.4104  63.8573 0002863 272.9772  87.1151 15.49850446107096
KEPLER-19               
1 51051U 22002BV  23351.12235200  .00009504  00000+0  42337-3 0  9996
2 51051  97.4163  53.2451 0006381 338.6402  21.4566 15.21635132106402
ETV-A1                  
1 51060U 22002CE  23351.53918503  .00006170  00000+0  30433-3 0  9995
2 51060  97.4180  52.6967 0008364 352.1966   7.9137 15.18246593106380
BRO-5                   
1 51061U 22002CF  23351.54512625  .00007386  00000+0  35492-3 0  9992
2 51061  97.4228  53.7243 0008394 354.2961   5.8176 15.19088723106430
TEVEL-7                 
1 51062U 22002CG  23351.54501242  .00042250  00000+0  11950-2 0  9997
2 51062  97.4110  58.3464 0005052 307.8029  52.2757 15.36183912106799
TEVEL-4                 
1 51063U 22002CH  23351.49536885  .00040557  00000+0  11521-2 0  9995
2 51063  97.4109  58.2531 0004964 308.1561  51.9235 15.36058355106786
TEVEL-2                 
1 51069U 22002CP  23351.45542345  .00034837  00000+0  98525-3 0  9999
2 51069  97.4097  58.1749 0005037 309.9925  50.0876 15.36230022106787
DELFI-PQ                
1 51074U 22002CU  23351.18109196  .00389777  00000+0  20438-2 0  9991
2 51074  97.4268  69.4715 0006163 290.7914  69.2692 15.79719188107340
VZLUSAT-2               
1 51085U 22002DF  23351.52945335  .00012081  00000+0  53557-3 0  9994
2 51085  97.4155  53.4141 0011279 339.8361  20.2428 15.21697349106443
L-SAR 01A               
1 51284U 22007A   23351.57604398  .00000974  00000+0  11093-3 0  9993
2 51284  97.8082 356.0751 0001600  87.5243 272.6157 14.88425199102722
INSPIRESAT-1            
1 51657U 22013B   23351.52768792  .00007679  00000+0  34501-3 0  9996
2 51657  97.5421   2.6200 0011587  89.7933 270.4630 15.21373673101759
